{"fetched_at":"2026-03-29T16:36:15Z","count":15609,"tles":[{"name":"STARLINK-5742","line1":"1 55583U 23020Q   26087.75783078  .00002725  00000+0  11117-3 0  9990","line2":"2 55583  42.9999 257.1162 0001170 282.8308  77.2412 15.26763269171834","category":"Starlink"}]}