{
  "norad_id": 55583,
  "name": "STARLINK-5742",
  "history": [
    {
      "epoch": "2026-03-28T18:11:16.579392",
      "apogee_km": 486.2988176480512,
      "perigee_km": 484.69272757926046,
      "latitude_deg": -40.8299829630097,
      "longitude_deg": 171.05175487999804,
      "semi_major_axis_km": 6863.632772613656,
      "eccentricity": 0.000117,
      "inclination_deg": 42.9999,
      "raan_deg": 257.1162,
      "arg_perigee_deg": 282.8308,
      "mean_anomaly_deg": 77.2412,
      "mean_motion_rev_day": 15.26763269
    }
  ]
}